NORAD_CAT_ID,OBJECT_NAME,OBJECT_TYPE,EPOCH,MEAN_MOTION,ECCENTRICITY,INCLINATION,RA_OF_ASC_NODE,ARG_OF_PERICENTER,MEAN_ANOMALY,BSTAR,MEAN_MOTION_DOT,MEAN_MOTION_DDOT,TLE_LINE0,TLE_LINE1,TLE_LINE2,SEMIMAJOR_AXIS,PERIOD,APOGEE,PERIGEE,DECAYED
54789.0,STARLINK-5446,PAYLOAD,2023-12-03 13:32:36,15.08831972,0.0001406,53.218,126.9996,74.9767,285.1381,-0.0001086,-2.015e-05,0.0,0 STARLINK-5446,1 54789U 22175AH  23337.56431106 -.00002015  00000-0 -10860-3 0  9992,2 54789  53.2180 126.9996 0001406  74.9767 285.1381 15.08831972 55470,6917.905,95.438,540.743,538.797,0.0
54789.0,STARLINK-5446,PAYLOAD,2023-12-03 19:54:09,15.08829891,0.0001265,53.2172,125.8078,100.5658,259.5477,-0.00014706,-2.627e-05,0.0,0 STARLINK-5446,1 54789U 22175AH  23337.82927290 -.00002627  00000-0 -14706-3 0  9997,2 54789  53.2172 125.8078 0001265 100.5658 259.5477 15.08829891 53351,6917.911,95.438,540.651,538.901,0.0
54789.0,STARLINK-5446,PAYLOAD,2023-12-04 13:23:23,15.08834201,0.0001041,53.2156,122.5391,87.1589,272.9522,-9.6518e-05,-1.823e-05,0.0,0 STARLINK-5446,1 54789U 22175AH  23338.55791476 -.00001823  00000-0 -96518-4 0  9992,2 54789  53.2156 122.5391 0001041  87.1589 272.9522 15.08834201 55623,6917.898,95.438,540.483,539.043,0.0
54789.0,STARLINK-5446,PAYLOAD,2023-12-05 10:03:23,15.0883495,0.0001192,53.2169,118.6708,95.0865,265.0264,0.00022684,3.324e-05,0.0,0 STARLINK-5446,1 54789U 22175AH  23339.41902626  .00003324  00000-0  22684-3 0  9997,2 54789  53.2169 118.6708 0001192  95.0865 265.0264 15.08834950 53598,6917.896,95.438,540.585,538.936,0.0
54789.0,STARLINK-5446,PAYLOAD,2023-12-05 13:14:09,15.08838457,0.0001172,53.2168,118.0765,92.05,268.0627,0.00024639,3.635e-05,0.0,0 STARLINK-5446,1 54789U 22175AH  23339.55150421  .00003635  00000-0  24639-3 0  9997,2 54789  53.2168 118.0765 0001172  92.0500 268.0627 15.08838457 55779,6917.885,95.438,540.561,538.939,0.0
54789.0,STARLINK-5446,PAYLOAD,2023-12-05 19:35:41,15.08845616,0.0001257,53.217,116.8854,96.2424,263.8712,0.00030381,4.551e-05,0.0,0 STARLINK-5446,1 54789U 22175AH  23339.81645795  .00004551  00000-0  30381-3 0  9998,2 54789  53.2170 116.8854 0001257  96.2424 263.8712 15.08845616 53650,6917.863,95.437,540.598,538.859,0.0
54789.0,STARLINK-5446,PAYLOAD,2023-12-06 09:54:11,15.0884375,0.0002133,53.2161,114.2024,115.5998,244.5215,5.0245e-05,5.12e-06,0.0,0 STARLINK-5446,1 54789U 22175AH  23340.41262863  .00000512  00000-0  50245-4 0  9992,2 54789  53.2161 114.2024 0002133 115.5998 244.5215 15.08843750 53747,6917.869,95.437,541.21,538.258,0.0
54789.0,STARLINK-5446,PAYLOAD,2023-12-06 13:04:57,15.08836574,0.0001213,53.2178,113.6128,88.2875,271.8256,1.1027e-05,-1.12e-06,0.0,0 STARLINK-5446,1 54789U 22175AH  23340.54511519 -.00000112  00000-0  11027-4 0  9993,2 54789  53.2178 113.6128 0001213  88.2875 271.8256 15.08836574 55927,6917.891,95.438,540.595,538.917,0.0
54789.0,STARLINK-5446,PAYLOAD,2023-12-07 12:55:44,15.08844785,0.0001242,53.2171,109.1535,96.7187,263.3946,-6.5944e-05,-1.337e-05,0.0,0 STARLINK-5446,1 54789U 22175AH  23341.53871132 -.00001337  00000-0 -65944-4 0  9991,2 54789  53.2171 109.1535 0001242  96.7187 263.3946 15.08844785 56076,6917.866,95.437,540.59,538.872,0.0
54789.0,STARLINK-5446,PAYLOAD,2023-12-08 12:46:31,15.08840523,0.0001319,53.2164,104.6955,94.9111,265.2032,7.4666e-05,9.01e-06,0.0,0 STARLINK-5446,1 54789U 22175AH  23342.53230842  .00000901  00000-0  74666-4 0  9994,2 54789  53.2164 104.6955 0001319  94.9111 265.2032 15.08840523 56226,6917.879,95.438,540.656,538.831,0.0
54789.0,STARLINK-5446,PAYLOAD,2023-12-09 07:51:09,15.0884144,0.0001396,53.2162,101.1278,82.9666,277.1485,3.2774e-05,2.34e-06,0.0,0 STARLINK-5446,1 54789U 22175AH  23343.32718981  .00000234  00000-0  32774-4 0  9990,2 54789  53.2162 101.1278 0001396  82.9666 277.1485 15.08841440 54187,6917.876,95.437,540.707,538.775,0.0
54789.0,STARLINK-5446,PAYLOAD,2023-12-09 12:37:18,15.0884046,0.0001377,53.2164,100.2354,84.6452,275.4698,2.4937e-05,1.09e-06,0.0,0 STARLINK-5446,1 54789U 22175AH  23343.52591028  .00000109  00000-0  24937-4 0  9996,2 54789  53.2164 100.2354 0001377  84.6452 275.4698 15.08840460 56376,6917.879,95.438,540.697,538.791,0.0
54789.0,STARLINK-5446,PAYLOAD,2023-12-10 14:03:28,15.08841803,0.0001477,53.2177,95.4783,88.8321,271.2841,2.1528e-05,5.5e-07,0.0,0 STARLINK-5446,1 54789U 22175AH  23344.58574860  .00000055  00000-0  21528-4 0  9991,2 54789  53.2177  95.4783 0001477  88.8321 271.2841 15.08841803 56537,6917.875,95.437,540.762,538.718,0.0
54789.0,STARLINK-5446,PAYLOAD,2023-12-11 10:43:29,15.08836706,0.0001581,53.2182,91.6122,90.8949,269.2224,1.0091e-06,-2.72e-06,0.0,0 STARLINK-5446,1 54789U 22175AH  23345.44687278 -.00000272  00000-0  10091-5 0  9991,2 54789  53.2182  91.6122 0001581  90.8949 269.2224 15.08836706 54506,6917.89,95.438,540.849,538.662,0.0
54789.0,STARLINK-5446,PAYLOAD,2023-12-11 13:54:15,15.08839039,0.0001651,53.2181,91.0181,81.0081,279.1098,2.236e-05,6.8e-07,0.0,0 STARLINK-5446,1 54789U 22175AH  23345.57935158  .00000068  00000-0  22360-4 0  9991,2 54789  53.2181  91.0181 0001651  81.0081 279.1098 15.08839039 56683,6917.883,95.438,540.89,538.606,0.0
54789.0,STARLINK-5446,PAYLOAD,2023-12-12 12:09:40,15.08835948,0.000168,53.2187,86.86,99.0319,261.0863,3.049e-05,1.97e-06,0.0,0 STARLINK-5446,1 54789U 22175AH  23346.50671372  .00000197  00000-0  30490-4 0  9996,2 54789  53.2187  86.8600 0001680  99.0319 261.0863 15.08835948 54663,6917.893,95.438,540.92,538.596,0.0
54789.0,STARLINK-5446,PAYLOAD,2023-12-12 13:45:03,15.08836821,0.0001668,53.2184,86.562,96.8296,263.2885,3.8939e-05,3.32e-06,0.0,0 STARLINK-5446,1 54789U 22175AH  23346.57295301  .00000332  00000-0  38939-4 0  9994,2 54789  53.2184  86.5620 0001668  96.8296 263.2885 15.08836821 56834,6917.89,95.438,540.909,538.601,0.0
54789.0,STARLINK-5446,PAYLOAD,2023-12-13 13:35:49,15.08846343,0.0001475,53.2174,82.0945,89.6089,270.5072,5.2472e-05,5.47e-06,0.0,0 STARLINK-5446,1 54789U 22175AH  23347.56654693  .00000547  00000-0  52472-4 0  9993,2 54789  53.2174  82.0945 0001475  89.6089 270.5072 15.08846343 56985,6917.861,95.437,540.746,538.706,0.0
54789.0,STARLINK-5446,PAYLOAD,2023-12-14 11:51:14,15.08840313,0.0001513,53.2182,77.9333,103.0379,257.0782,-7.0985e-06,-4.01e-06,0.0,0 STARLINK-5446,1 54789U 22175AH  23348.49391307 -.00000401  00000-0 -70985-5 0  9997,2 54789  53.2182  77.9333 0001513 103.0379 257.0782 15.08840313 54969,6917.879,95.438,540.791,538.698,0.0
54789.0,STARLINK-5446,PAYLOAD,2023-12-15 13:17:24,15.08839612,0.0001414,53.2173,73.1724,84.0103,276.105,-1.7808e-05,-5.71e-06,0.0,0 STARLINK-5446,1 54789U 22175AH  23349.55375639 -.00000571  00000-0 -17808-4 0  9997,2 54789  53.2173  73.1724 0001414  84.0103 276.1050 15.08839612 57282,6917.882,95.438,540.725,538.768,0.0
54789.0,STARLINK-5446,PAYLOAD,2023-12-16 11:32:48,15.08827254,0.0001617,53.2176,69.0094,64.8374,295.2786,0.00017648,2.521e-05,0.0,0 STARLINK-5446,1 54789U 22175AH  23350.48111982  .00002521  00000-0  17648-3 0  9996,2 54789  53.2176  69.0094 0001617  64.8374 295.2786 15.08827254 55263,6917.919,95.438,540.903,538.666,0.0
54789.0,STARLINK-5446,PAYLOAD,2023-12-16 13:08:11,15.0884392,0.0001615,53.2187,68.715,93.197,266.9207,3.0651e-05,2e-06,0.0,0 STARLINK-5446,1 54789U 22175AH  23350.54735521  .00000200  00000-0  30651-4 0  9996,2 54789  53.2187  68.7150 0001615  93.1970 266.9207 15.08843920 57431,6917.868,95.437,540.851,538.616,0.0
54789.0,STARLINK-5446,PAYLOAD,2023-12-17 11:23:35,15.08838721,0.000178,53.2193,64.5492,62.4873,297.63,3.9408e-05,3.39e-06,0.0,0 STARLINK-5446,1 54789U 22175AH  23351.47472030  .00000339  00000-0  39408-4 0  9994,2 54789  53.2193  64.5492 0001780  62.4873 297.6300 15.08838721 55419,6917.884,95.438,540.981,538.518,0.0
54789.0,STARLINK-5446,PAYLOAD,2023-12-18 11:14:21,15.0885449,0.0001377,53.2181,60.0868,75.2302,284.8843,6.2782e-05,7.12e-06,0.0,0 STARLINK-5446,1 54789U 22175AH  23352.46830704  .00000712  00000-0  62782-4 0  9996,2 54789  53.2181  60.0868 0001377  75.2302 284.8843 15.08854490 55562,6917.836,95.437,540.654,538.749,0.0
54789.0,STARLINK-5446,PAYLOAD,2023-12-19 09:29:46,15.08844099,0.0001638,53.2187,55.9209,113.037,247.0795,-5.4278e-05,-1.152e-05,0.0,0 STARLINK-5446,1 54789U 22175AH  23353.39567496 -.00001152  00000-0 -54278-4 0  9996,2 54789  53.2187  55.9209 0001638 113.0370 247.0795 15.08844099 55703,6917.868,95.437,540.866,538.6,0.0
54789.0,STARLINK-5446,PAYLOAD,2023-12-20 09:20:34,15.08836809,0.000149,53.2177,51.4648,90.1828,269.9335,-9.8533e-05,-1.856e-05,0.0,0 STARLINK-5446,1 54789U 22175AH  23354.38928575 -.00001856  00000-0 -98533-4 0  9998,2 54789  53.2177  51.4648 0001490  90.1828 269.9335 15.08836809 55858,6917.89,95.438,540.786,538.724,0.0
54789.0,STARLINK-5446,PAYLOAD,2023-12-21 09:11:20,15.08840282,0.0001909,53.2192,47.0112,114.8216,245.2975,0.00017833,2.551e-05,0.0,0 STARLINK-5446,1 54789U 22175AH  23355.38287645  .00002551  00000-0  17833-3 0  9999,2 54789  53.2192  47.0112 0001909 114.8216 245.2975 15.08840282 56007,6917.88,95.438,541.065,538.424,0.0
54789.0,STARLINK-5446,PAYLOAD,2023-12-21 23:29:49,15.08838531,0.0002344,53.2199,44.3367,127.4247,232.6958,4.1884e-05,3.78e-06,0.0,0 STARLINK-5446,1 54789U 22175AH  23355.97904373  .00000378  00000-0  41884-4 0  9997,2 54789  53.2199  44.3367 0002344 127.4247 232.6958 15.08838531 56098,6917.885,95.438,541.371,538.128,0.0
54789.0,STARLINK-5446,PAYLOAD,2023-12-22 10:37:31,15.08836332,0.0001543,53.2184,42.2541,80.9184,279.1982,2.3713e-05,8.9e-07,0.0,0 STARLINK-5446,1 54789U 22175AH  23356.44272969  .00000089  00000-0  23713-4 0  9999,2 54789  53.2184  42.2541 0001543  80.9184 279.1982 15.08836332 58324,6917.892,95.438,540.824,538.689,0.0
54789.0,STARLINK-5446,PAYLOAD,2023-12-23 12:03:41,15.0884953,0.0001351,53.2171,37.4854,101.2186,258.8958,-1.1438e-05,-4.7e-06,0.0,0 STARLINK-5446,1 54789U 22175AH  23357.50256120 -.00000470  00000-0 -11438-4 0  9995,2 54789  53.2171  37.4854 0001351 101.2186 258.8958 15.08849530 56328,6917.851,95.437,540.651,538.782,0.0
